[{"OBJECT_NAME":"IRIDE FM7","OBJECT_ID":"2025-276AM","EPOCH":"2026-03-09T18:04:05.183328","MEAN_MOTION":15.18866259,"ECCENTRICITY":0.0003982,"INCLINATION":97.4286,"RA_OF_ASC_NODE":144.0153,"ARG_OF_PERICENTER":10.7537,"MEAN_ANOMALY":349.3782,"EPHEMERIS_TYPE":0,"CLASSIFICATION_TYPE":"U","NORAD_CAT_ID":66701,"ELEMENT_SET_NO":999,"REV_AT_EPOCH":1532,"BSTAR":0.00050729395,"MEAN_MOTION_DOT":0.00010516,"MEAN_MOTION_DDOT":0},{"OBJECT_NAME":"LANDSAT 5","OBJECT_ID":"1984-021A","EPOCH":"2026-03-09T17:06:39.595392","MEAN_MOTION":15.03956175,"ECCENTRICITY":0.00705197,"INCLINATION":98.0698,"RA_OF_ASC_NODE":343.5816,"ARG_OF_PERICENTER":90.3041,"MEAN_ANOMALY":270.6265,"EPHEMERIS_TYPE":0,"CLASSIFICATION_TYPE":"U","NORAD_CAT_ID":14780,"ELEMENT_SET_NO":999,"REV_AT_EPOCH":77643,"BSTAR":0.00029889959,"MEAN_MOTION_DOT":4.286e-5,"MEAN_MOTION_DDOT":0}]
